JILIN GAOFEN OBJECT E
1 68695U 26080E   26104.54394238  .00001583  00000+0  10305-3 0  9999
2 68695  97.6648 180.1803 0015051 282.0495  77.9047 15.09367303    22
