{
  "norad_id": 68695,
  "name": "JILIN GAOFEN OBJECT E",
  "history": [
    {
      "epoch": "2026-04-14T13:03:16.621632Z",
      "apogee_km": 548.5417805172792,
      "perigee_km": 527.7224272607527,
      "latitude_deg": 3.198314101645307e-05,
      "longitude_deg": 141.6421920071877,
      "height_km": 539.0337561260386,
      "semi_major_axis_km": 6916.269103889016,
      "eccentricity": 0.0015051,
      "inclination_deg": 97.6648,
      "raan_deg": 180.1803,
      "arg_perigee_deg": 282.0495,
      "mean_anomaly_deg": 77.9047,
      "mean_motion_rev_day": 15.09367303
    }
  ]
}